{
  "type": "FeatureCollection",
  "features": [
    {
      "type": "Feature",
      "properties": {
        "norad_id": 30912,
        "name": "FENGYUN 1C DEB",
        "group": "fengyun-1c-debris",
        "lat": -74.01165805051947,
        "lon": -136.00050667935986,
        "alt_km": 647.3165615015587,
        "timestamp": "2025-12-14T20:40:32.051153+00:00",
        "meta_object_name": "FENGYUN 1C DEB",
        "meta_object_id": "1999-025AZA",
        "meta_epoch": "2025-12-13T12:46:32.762496",
        "meta_mean_motion": 14.8941261,
        "meta_eccentricity": 0.00592555,
        "meta_inclination": 98.9968,
        "meta_ra_of_asc_node": 188.9199,
        "meta_arg_of_pericenter": 95.2817,
        "meta_mean_anomaly": 265.5161,
        "meta_ephemeris_type": 0,
        "meta_classification_type": "U",
        "meta_norad_cat_id": 30912,
        "meta_element_set_no": 999,
        "meta_rev_at_epoch": 99416,
        "meta_bstar": 0.0014920407,
        "meta_mean_motion_dot": 0.00014608,
        "meta_mean_motion_ddot": 0,
        "tle_line1": "1 30912U 99025AZA 25347.53232364  .00014608  00000+0  14920-2 0  9995",
        "tle_line2": "2 30912  98.9968 188.9199 0059255  95.2817 265.5161 14.89412610994160"
      },
      "geometry": {
        "type": "Point",
        "coordinates": [
          -136.00050667935986,
          -74.01165805051947
        ]
      }
    },
    {
      "type": "Feature",
      "properties": {
        "norad_id": 30913,
        "name": "FENGYUN 1C DEB",
        "group": "fengyun-1c-debris",
        "lat": 13.599127873953037,
        "lon": -162.1347599017691,
        "alt_km": 842.8942576454292,
        "timestamp": "2025-12-14T20:40:32.051175+00:00",
        "meta_object_name": "FENGYUN 1C DEB",
        "meta_object_id": "1999-025AZB",
        "meta_epoch": "2025-12-14T07:55:22.054368",
        "meta_mean_motion": 14.04952848,
        "meta_eccentricity": 0.004853,
        "meta_inclination": 98.7463,
        "meta_ra_of_asc_node": 15.2188,
        "meta_arg_of_pericenter": 176.8427,
        "meta_mean_anomaly": 183.3056,
        "meta_ephemeris_type": 0,
        "meta_classification_type": "U",
        "meta_norad_cat_id": 30913,
        "meta_element_set_no": 999,
        "meta_rev_at_epoch": 95940,
        "meta_bstar": 0.00058069495,
        "meta_mean_motion_dot": 9.02e-06,
        "meta_mean_motion_ddot": 0,
        "tle_line1": "1 30913U 99025AZB 25348.33011637  .00000902  00000+0  58069-3 0  9998",
        "tle_line2": "2 30913  98.7463  15.2188 0048530 176.8427 183.3056 14.04952848959403"
      },
      "geometry": {
        "type": "Point",
        "coordinates": [
          -162.1347599017691,
          13.599127873953037
        ]
      }
    },
    {
      "type": "Feature",
      "properties": {
        "norad_id": 30914,
        "name": "FENGYUN 1C DEB",
        "group": "fengyun-1c-debris",
        "lat": 31.14303155837831,
        "lon": -133.47697359429014,
        "alt_km": 926.297537217506,
        "timestamp": "2025-12-14T20:40:32.051186+00:00",
        "meta_object_name": "FENGYUN 1C DEB",
        "meta_object_id": "1999-025AZC",
        "meta_epoch": "2025-12-12T22:39:59.116608",
        "meta_mean_motion": 13.08837049,
        "meta_eccentricity": 0.05165148,
        "meta_inclination": 99.9823,
        "meta_ra_of_asc_node": 230.8365,
        "meta_arg_of_pericenter": 353.8635,
        "meta_mean_anomaly": 5.6308,
        "meta_ephemeris_type": 0,
        "meta_classification_type": "U",
        "meta_norad_cat_id": 30914,
        "meta_element_set_no": 999,
        "meta_rev_at_epoch": 59078,
        "meta_bstar": 0.004351417,
        "meta_mean_motion_dot": 2.822e-05,
        "meta_mean_motion_ddot": 0,
        "tle_line1": "1 30914U 99025AZC 25346.94443422  .00002822  00000+0  43514-2 0  9996",
        "tle_line2": "2 30914  99.9823 230.8365 0516514 353.8635   5.6308 13.08837049590785"
      },
      "geometry": {
        "type": "Point",
        "coordinates": [
          -133.47697359429014,
          31.14303155837831
        ]
      }
    },
    {
      "type": "Feature",
      "properties": {
        "norad_id": 30915,
        "name": "FENGYUN 1C DEB",
        "group": "fengyun-1c-debris",
        "lat": -80.90024084842588,
        "lon": 144.50071717914273,
        "alt_km": 828.3407217144813,
        "timestamp": "2025-12-14T20:40:32.051196+00:00",
        "meta_object_name": "FENGYUN 1C DEB",
        "meta_object_id": "1999-025AZD",
        "meta_epoch": "2025-12-14T04:14:32.006976",
        "meta_mean_motion": 14.25055832,
        "meta_eccentricity": 0.00537663,
        "meta_inclination": 98.9421,
        "meta_ra_of_asc_node": 64.3781,
        "meta_arg_of_pericenter": 164.1097,
        "meta_mean_anomaly": 196.1783,
        "meta_ephemeris_type": 0,
        "meta_classification_type": "U",
        "meta_norad_cat_id": 30915,
        "meta_element_set_no": 999,
        "meta_rev_at_epoch": 96533,
        "meta_bstar": 0.001823819,
        "meta_mean_motion_dot": 4.295e-05,
        "meta_mean_motion_ddot": 0,
        "tle_line1": "1 30915U 99025AZD 25348.17675934  .00004295  00000+0  18238-2 0  9990",
        "tle_line2": "2 30915  98.9421  64.3781 0053766 164.1097 196.1783 14.25055832965333"
      },
      "geometry": {
        "type": "Point",
        "coordinates": [
          144.50071717914273,
          -80.90024084842588
        ]
      }
    },
    {
      "type": "Feature",
      "properties": {
        "norad_id": 30916,
        "name": "FENGYUN 1C DEB",
        "group": "fengyun-1c-debris",
        "lat": -11.9252542660948,
        "lon": -132.7165566338054,
        "alt_km": 845.0488849299791,
        "timestamp": "2025-12-14T20:40:32.051206+00:00",
        "meta_object_name": "FENGYUN 1C DEB",
        "meta_object_id": "1999-025AZE",
        "meta_epoch": "2025-12-14T02:51:28.747008",
        "meta_mean_motion": 14.08803194,
        "meta_eccentricity": 0.00628513,
        "meta_inclination": 99.0024,
        "meta_ra_of_asc_node": 48.4609,
        "meta_arg_of_pericenter": 254.42,
        "meta_mean_anomaly": 135.0194,
        "meta_ephemeris_type": 0,
        "meta_classification_type": "U",
        "meta_norad_cat_id": 30916,
        "meta_element_set_no": 999,
        "meta_rev_at_epoch": 95863,
        "meta_bstar": 0.0015138977,
        "meta_mean_motion_dot": 2.616e-05,
        "meta_mean_motion_ddot": 0,
        "tle_line1": "1 30916U 99025AZE 25348.11908272  .00002616  00000+0  15139-2 0  9991",
        "tle_line2": "2 30916  99.0024  48.4609 0062851 254.4200 135.0194 14.08803194958637"
      },
      "geometry": {
        "type": "Point",
        "coordinates": [
          -132.7165566338054,
          -11.9252542660948
        ]
      }
    },
    {
      "type": "Feature",
      "properties": {
        "norad_id": 30918,
        "name": "FENGYUN 1C DEB",
        "group": "fengyun-1c-debris",
        "lat": -6.74406955195843,
        "lon": -80.11055318185167,
        "alt_km": 862.4390166227113,
        "timestamp": "2025-12-14T20:40:32.051217+00:00",
        "meta_object_name": "FENGYUN 1C DEB",
        "meta_object_id": "1999-025AZG",
        "meta_epoch": "2025-12-14T06:11:29.733792",
        "meta_mean_motion": 13.96829305,
        "meta_eccentricity": 0.0158048,
        "meta_inclination": 98.416,
        "meta_ra_of_asc_node": 100.3399,
        "meta_arg_of_pericenter": 121.1466,
        "meta_mean_anomaly": 270.8294,
        "meta_ephemeris_type": 0,
        "meta_classification_type": "U",
        "meta_norad_cat_id": 30918,
        "meta_element_set_no": 999,
        "meta_rev_at_epoch": 95074,
        "meta_bstar": 0.0017205871,
        "meta_mean_motion_dot": 2.621e-05,
        "meta_mean_motion_ddot": 0,
        "tle_line1": "1 30918U 99025AZG 25348.25798303  .00002621  00000+0  17206-2 0  9993",
        "tle_line2": "2 30918  98.4160 100.3399 0158048 121.1466 270.8294 13.96829305950746"
      },
      "geometry": {
        "type": "Point",
        "coordinates": [
          -80.11055318185167,
          -6.74406955195843
        ]
      }
    },
    {
      "type": "Feature",
      "properties": {
        "norad_id": 30920,
        "name": "FENGYUN 1C DEB",
        "group": "fengyun-1c-debris",
        "lat": -60.317029407491724,
        "lon": -65.83022486044318,
        "alt_km": 911.3473842609465,
        "timestamp": "2025-12-14T20:40:32.051227+00:00",
        "meta_object_name": "FENGYUN 1C DEB",
        "meta_object_id": "1999-025AZJ",
        "meta_epoch": "2025-12-14T02:35:50.020512",
        "meta_mean_motion": 14.16658315,
        "meta_eccentricity": 0.01094426,
        "meta_inclination": 98.918,
        "meta_ra_of_asc_node": 129.405,
        "meta_arg_of_pericenter": 94.4463,
        "meta_mean_anomaly": 266.9224,
        "meta_ephemeris_type": 0,
        "meta_classification_type": "U",
        "meta_norad_cat_id": 30920,
        "meta_element_set_no": 999,
        "meta_rev_at_epoch": 95113,
        "meta_bstar": 0.0039435723,
        "meta_mean_motion_dot": 8.314e-05,
        "meta_mean_motion_ddot": 0,
        "tle_line1": "1 30920U 99025AZJ 25348.10821783  .00008314  00000+0  39436-2 0  9993",
        "tle_line2": "2 30920  98.9180 129.4050 0109442  94.4463 266.9224 14.16658315951132"
      },
      "geometry": {
        "type": "Point",
        "coordinates": [
          -65.83022486044318,
          -60.317029407491724
        ]
      }
    }
  ]
}